[{"OBJECT_NAME":"OPTICUBE 04","OBJECT_ID":"2016-067D","EPOCH":"2026-03-09T12:14:28.758048","MEAN_MOTION":15.09188378,"ECCENTRICITY":0.00170901,"INCLINATION":98.0811,"RA_OF_ASC_NODE":275.5525,"ARG_OF_PERICENTER":94.6311,"MEAN_ANOMALY":265.6869,"EPHEMERIS_TYPE":0,"CLASSIFICATION_TYPE":"U","NORAD_CAT_ID":41851,"ELEMENT_SET_NO":999,"REV_AT_EPOCH":51013,"BSTAR":0.00024566739,"MEAN_MOTION_DOT":3.845e-5,"MEAN_MOTION_DDOT":0},{"OBJECT_NAME":"STARLINK-3516","OBJECT_ID":"2022-016AB","EPOCH":"2026-03-09T21:55:18.692256","MEAN_MOTION":15.08832918,"ECCENTRICITY":0.0001344,"INCLINATION":53.219,"RA_OF_ASC_NODE":318.1159,"ARG_OF_PERICENTER":97.2091,"MEAN_ANOMALY":262.9054,"EPHEMERIS_TYPE":0,"CLASSIFICATION_TYPE":"U","NORAD_CAT_ID":51739,"ELEMENT_SET_NO":999,"REV_AT_EPOCH":22359,"BSTAR":-3.9048458e-5,"MEAN_MOTION_DOT":-9.09e-6,"MEAN_MOTION_DDOT":0}]
